ORBCOMM FM24            
1 25478U 98053D   26019.10147687  .00000931  00000+0  34623-3 0  9996
2 25478  45.0093 324.8581 0002972 272.2194  87.8314 14.38764429428538
ORBCOMM FM25            
1 25479U 98053E   26019.21621234  .00001013  00000+0  37275-3 0  9992
2 25479  45.0084 322.6186 0005292 267.7209  92.3033 14.38733565428840
ORBCOMM FM26            
1 25480U 98053F   26019.09808136  .00000711  00000+0  28125-3 0  9996
2 25480  45.0081 321.2682 0007397 276.5620  83.4385 14.37687342428715
ORBCOMM FM27            
1 25481U 98053G   26019.19890847  .00001084  00000+0  39565-3 0  9992
2 25481  45.0066 322.8192 0002148 302.0189  58.0450 14.38771520428776
ORBCOMM FM28            
1 25482U 98053H   26019.00491595  .00000655  00000+0  25676-3 0  9991
2 25482  45.0048 260.9838 0004866 313.8233  46.2212 14.38883550429431
ORBCOMM FM30            
1 25980U 99065A   26019.34137890  .00000898  00000+0  34178-3 0  9996
2 25980  45.0305 146.1727 0004976  10.5014 349.5938 14.37846692365553
ORBCOMM FM31            
1 25981U 99065B   26019.32491202  .00000860  00000+0  32996-3 0  9990
2 25981  45.0218 139.6980 0002469  47.6614 312.4444 14.37771964365108
ORBCOMM FM32            
1 25982U 99065C   26019.09674072  .00000672  00000+0  27289-3 0  9993
2 25982  45.0144 158.7989 0004983  38.2410 321.8791 14.36831041365641
