<?xml version="1.0" encoding="UTF-8"?>
<ndm xmlns:xsi="http://www.w3.org/2001/XMLSchema-instance" xsi:noNamespaceSchemaLocation="https://sanaregistry.org/r/ndmxml_unqualified/ndmxml-2.0.0-master-2.0.xsd">
<omm id="CCSDS_OMM_VERS" version="2.0">
<header><CREATION_DATE/><ORIGINATOR/></header><body><segment><metadata><OBJECT_NAME>ORBCOMM FM24</OBJECT_NAME><OBJECT_ID>1998-053D</OBJECT_ID><CENTER_NAME>EARTH</CENTER_NAME><REF_FRAME>TEME</REF_FRAME><TIME_SYSTEM>UTC</TIME_SYSTEM><MEAN_ELEMENT_THEORY>SGP4</MEAN_ELEMENT_THEORY></metadata><data><meanElements><EPOCH>2026-01-19T02:26:07.601568</EPOCH><MEAN_MOTION>14.38764429</MEAN_MOTION><ECCENTRICITY>.0002972</ECCENTRICITY><INCLINATION>45.0093</INCLINATION><RA_OF_ASC_NODE>324.8581</RA_OF_ASC_NODE><ARG_OF_PERICENTER>272.2194</ARG_OF_PERICENTER><MEAN_ANOMALY>87.8314</MEAN_ANOMALY></meanElements><tleParameters><EPHEMERIS_TYPE>0</EPHEMERIS_TYPE><CLASSIFICATION_TYPE>U</CLASSIFICATION_TYPE><NORAD_CAT_ID>25478</NORAD_CAT_ID><ELEMENT_SET_NO>999</ELEMENT_SET_NO><REV_AT_EPOCH>42853</REV_AT_EPOCH><BSTAR>.34623126E-3</BSTAR><MEAN_MOTION_DOT>.931E-5</MEAN_MOTION_DOT><MEAN_MOTION_DDOT>0</MEAN_MOTION_DDOT></tleParameters></data></segment></body></omm>
<omm id="CCSDS_OMM_VERS" version="2.0">
<header><CREATION_DATE/><ORIGINATOR/></header><body><segment><metadata><OBJECT_NAME>ORBCOMM FM25</OBJECT_NAME><OBJECT_ID>1998-053E</OBJECT_ID><CENTER_NAME>EARTH</CENTER_NAME><REF_FRAME>TEME</REF_FRAME><TIME_SYSTEM>UTC</TIME_SYSTEM><MEAN_ELEMENT_THEORY>SGP4</MEAN_ELEMENT_THEORY></metadata><data><meanElements><EPOCH>2026-01-19T05:11:20.746176</EPOCH><MEAN_MOTION>14.38733565</MEAN_MOTION><ECCENTRICITY>.00052921</ECCENTRICITY><INCLINATION>45.0084</INCLINATION><RA_OF_ASC_NODE>322.6186</RA_OF_ASC_NODE><ARG_OF_PERICENTER>267.7209</ARG_OF_PERICENTER><MEAN_ANOMALY>92.3033</MEAN_ANOMALY></meanElements><tleParameters><EPHEMERIS_TYPE>0</EPHEMERIS_TYPE><CLASSIFICATION_TYPE>U</CLASSIFICATION_TYPE><NORAD_CAT_ID>25479</NORAD_CAT_ID><ELEMENT_SET_NO>999</ELEMENT_SET_NO><REV_AT_EPOCH>42884</REV_AT_EPOCH><BSTAR>.37275223E-3</BSTAR><MEAN_MOTION_DOT>.1013E-4</MEAN_MOTION_DOT><MEAN_MOTION_DDOT>0</MEAN_MOTION_DDOT></tleParameters></data></segment></body></omm>
<omm id="CCSDS_OMM_VERS" version="2.0">
<header><CREATION_DATE/><ORIGINATOR/></header><body><segment><metadata><OBJECT_NAME>ORBCOMM FM26</OBJECT_NAME><OBJECT_ID>1998-053F</OBJECT_ID><CENTER_NAME>EARTH</CENTER_NAME><REF_FRAME>TEME</REF_FRAME><TIME_SYSTEM>UTC</TIME_SYSTEM><MEAN_ELEMENT_THEORY>SGP4</MEAN_ELEMENT_THEORY></metadata><data><meanElements><EPOCH>2026-01-19T02:21:14.229504</EPOCH><MEAN_MOTION>14.37687342</MEAN_MOTION><ECCENTRICITY>.00073976</ECCENTRICITY><INCLINATION>45.0081</INCLINATION><RA_OF_ASC_NODE>321.2682</RA_OF_ASC_NODE><ARG_OF_PERICENTER>276.5620</ARG_OF_PERICENTER><MEAN_ANOMALY>83.4385</MEAN_ANOMALY></meanElements><tleParameters><EPHEMERIS_TYPE>0</EPHEMERIS_TYPE><CLASSIFICATION_TYPE>U</CLASSIFICATION_TYPE><NORAD_CAT_ID>25480</NORAD_CAT_ID><ELEMENT_SET_NO>999</ELEMENT_SET_NO><REV_AT_EPOCH>42871</REV_AT_EPOCH><BSTAR>.28124687E-3</BSTAR><MEAN_MOTION_DOT>.711E-5</MEAN_MOTION_DOT><MEAN_MOTION_DDOT>0</MEAN_MOTION_DDOT></tleParameters></data></segment></body></omm>
<omm id="CCSDS_OMM_VERS" version="2.0">
<header><CREATION_DATE/><ORIGINATOR/></header><body><segment><metadata><OBJECT_NAME>ORBCOMM FM27</OBJECT_NAME><OBJECT_ID>1998-053G</OBJECT_ID><CENTER_NAME>EARTH</CENTER_NAME><REF_FRAME>TEME</REF_FRAME><TIME_SYSTEM>UTC</TIME_SYSTEM><MEAN_ELEMENT_THEORY>SGP4</MEAN_ELEMENT_THEORY></metadata><data><meanElements><EPOCH>2026-01-19T04:46:25.691808</EPOCH><MEAN_MOTION>14.38771520</MEAN_MOTION><ECCENTRICITY>.00021488</ECCENTRICITY><INCLINATION>45.0066</INCLINATION><RA_OF_ASC_NODE>322.8192</RA_OF_ASC_NODE><ARG_OF_PERICENTER>302.0189</ARG_OF_PERICENTER><MEAN_ANOMALY>58.0450</MEAN_ANOMALY></meanElements><tleParameters><EPHEMERIS_TYPE>0</EPHEMERIS_TYPE><CLASSIFICATION_TYPE>U</CLASSIFICATION_TYPE><NORAD_CAT_ID>25481</NORAD_CAT_ID><ELEMENT_SET_NO>999</ELEMENT_SET_NO><REV_AT_EPOCH>42877</REV_AT_EPOCH><BSTAR>.3956514E-3</BSTAR><MEAN_MOTION_DOT>.1084E-4</MEAN_MOTION_DOT><MEAN_MOTION_DDOT>0</MEAN_MOTION_DDOT></tleParameters></data></segment></body></omm>
<omm id="CCSDS_OMM_VERS" version="2.0">
<header><CREATION_DATE/><ORIGINATOR/></header><body><segment><metadata><OBJECT_NAME>ORBCOMM FM28</OBJECT_NAME><OBJECT_ID>1998-053H</OBJECT_ID><CENTER_NAME>EARTH</CENTER_NAME><REF_FRAME>TEME</REF_FRAME><TIME_SYSTEM>UTC</TIME_SYSTEM><MEAN_ELEMENT_THEORY>SGP4</MEAN_ELEMENT_THEORY></metadata><data><meanElements><EPOCH>2026-01-19T00:07:04.738080</EPOCH><MEAN_MOTION>14.38883550</MEAN_MOTION><ECCENTRICITY>.00048663</ECCENTRICITY><INCLINATION>45.0048</INCLINATION><RA_OF_ASC_NODE>260.9838</RA_OF_ASC_NODE><ARG_OF_PERICENTER>313.8233</ARG_OF_PERICENTER><MEAN_ANOMALY>46.2212</MEAN_ANOMALY></meanElements><tleParameters><EPHEMERIS_TYPE>0</EPHEMERIS_TYPE><CLASSIFICATION_TYPE>U</CLASSIFICATION_TYPE><NORAD_CAT_ID>25482</NORAD_CAT_ID><ELEMENT_SET_NO>999</ELEMENT_SET_NO><REV_AT_EPOCH>42943</REV_AT_EPOCH><BSTAR>.25676315E-3</BSTAR><MEAN_MOTION_DOT>.655E-5</MEAN_MOTION_DOT><MEAN_MOTION_DDOT>0</MEAN_MOTION_DDOT></tleParameters></data></segment></body></omm>
<omm id="CCSDS_OMM_VERS" version="2.0">
<header><CREATION_DATE/><ORIGINATOR/></header><body><segment><metadata><OBJECT_NAME>ORBCOMM FM30</OBJECT_NAME><OBJECT_ID>1999-065A</OBJECT_ID><CENTER_NAME>EARTH</CENTER_NAME><REF_FRAME>TEME</REF_FRAME><TIME_SYSTEM>UTC</TIME_SYSTEM><MEAN_ELEMENT_THEORY>SGP4</MEAN_ELEMENT_THEORY></metadata><data><meanElements><EPOCH>2026-01-19T08:11:35.136960</EPOCH><MEAN_MOTION>14.37846692</MEAN_MOTION><ECCENTRICITY>.0004976</ECCENTRICITY><INCLINATION>45.0305</INCLINATION><RA_OF_ASC_NODE>146.1727</RA_OF_ASC_NODE><ARG_OF_PERICENTER>10.5014</ARG_OF_PERICENTER><MEAN_ANOMALY>349.5938</MEAN_ANOMALY></meanElements><tleParameters><EPHEMERIS_TYPE>0</EPHEMERIS_TYPE><CLASSIFICATION_TYPE>U</CLASSIFICATION_TYPE><NORAD_CAT_ID>25980</NORAD_CAT_ID><ELEMENT_SET_NO>999</ELEMENT_SET_NO><REV_AT_EPOCH>36555</REV_AT_EPOCH><BSTAR>.34177893E-3</BSTAR><MEAN_MOTION_DOT>.898E-5</MEAN_MOTION_DOT><MEAN_MOTION_DDOT>0</MEAN_MOTION_DDOT></tleParameters></data></segment></body></omm>
<omm id="CCSDS_OMM_VERS" version="2.0">
<header><CREATION_DATE/><ORIGINATOR/></header><body><segment><metadata><OBJECT_NAME>ORBCOMM FM31</OBJECT_NAME><OBJECT_ID>1999-065B</OBJECT_ID><CENTER_NAME>EARTH</CENTER_NAME><REF_FRAME>TEME</REF_FRAME><TIME_SYSTEM>UTC</TIME_SYSTEM><MEAN_ELEMENT_THEORY>SGP4</MEAN_ELEMENT_THEORY></metadata><data><meanElements><EPOCH>2026-01-19T07:47:52.398528</EPOCH><MEAN_MOTION>14.37771964</MEAN_MOTION><ECCENTRICITY>.00024696</ECCENTRICITY><INCLINATION>45.0218</INCLINATION><RA_OF_ASC_NODE>139.6980</RA_OF_ASC_NODE><ARG_OF_PERICENTER>47.6614</ARG_OF_PERICENTER><MEAN_ANOMALY>312.4444</MEAN_ANOMALY></meanElements><tleParameters><EPHEMERIS_TYPE>0</EPHEMERIS_TYPE><CLASSIFICATION_TYPE>U</CLASSIFICATION_TYPE><NORAD_CAT_ID>25981</NORAD_CAT_ID><ELEMENT_SET_NO>999</ELEMENT_SET_NO><REV_AT_EPOCH>36510</REV_AT_EPOCH><BSTAR>.32995947E-3</BSTAR><MEAN_MOTION_DOT>.86E-5</MEAN_MOTION_DOT><MEAN_MOTION_DDOT>0</MEAN_MOTION_DDOT></tleParameters></data></segment></body></omm>
<omm id="CCSDS_OMM_VERS" version="2.0">
<header><CREATION_DATE/><ORIGINATOR/></header><body><segment><metadata><OBJECT_NAME>ORBCOMM FM32</OBJECT_NAME><OBJECT_ID>1999-065C</OBJECT_ID><CENTER_NAME>EARTH</CENTER_NAME><REF_FRAME>TEME</REF_FRAME><TIME_SYSTEM>UTC</TIME_SYSTEM><MEAN_ELEMENT_THEORY>SGP4</MEAN_ELEMENT_THEORY></metadata><data><meanElements><EPOCH>2026-01-19T02:19:18.398208</EPOCH><MEAN_MOTION>14.36831041</MEAN_MOTION><ECCENTRICITY>.00049836</ECCENTRICITY><INCLINATION>45.0144</INCLINATION><RA_OF_ASC_NODE>158.7989</RA_OF_ASC_NODE><ARG_OF_PERICENTER>38.2410</ARG_OF_PERICENTER><MEAN_ANOMALY>321.8791</MEAN_ANOMALY></meanElements><tleParameters><EPHEMERIS_TYPE>0</EPHEMERIS_TYPE><CLASSIFICATION_TYPE>U</CLASSIFICATION_TYPE><NORAD_CAT_ID>25982</NORAD_CAT_ID><ELEMENT_SET_NO>999</ELEMENT_SET_NO><REV_AT_EPOCH>36564</REV_AT_EPOCH><BSTAR>.27288724E-3</BSTAR><MEAN_MOTION_DOT>.672E-5</MEAN_MOTION_DOT><MEAN_MOTION_DDOT>0</MEAN_MOTION_DDOT></tleParameters></data></segment></body></omm>

</ndm>
